[
  {
    "OBJECT_NAME": "STARLINK-33732",
    "OBJECT_ID": "25076G",
    "EPOCH": "2025-11-11T05:48:17.739936",
    "MEAN_MOTION": 15.27622773,
    "ECCENTRICITY": 0.0001043,
    "INCLINATION": 43.0007,
    "RA_OF_ASC_NODE": 270.776,
    "ARG_OF_PERICENTER": 256.5872,
    "MEAN_ANOMALY": 103.4863,
    "EPHEMERIS_TYPE": 0,
    "CLASSIFICATION_TYPE": "U",
    "NORAD_CAT_ID": 63575,
    "ELEMENT_SET_NO": 999,
    "REV_AT_EPOCH": 3371,
    "BSTAR": 0.0014419,
    "MEAN_MOTION_DOT": 0.00039681,
    "MEAN_MOTION_DDOT": 0.0,
    "TLE_LINE1": "1 63575U 25076G   25315.24187199  .00039681  00000+0  14419-2 0  9990",
    "TLE_LINE2": "2 63575  43.0007 270.7760 0001043 256.5872 103.4863 15.27622773 33715",
    "COMMENT": "Grouped by shell and plane from TLE"
  },
  {
    "OBJECT_NAME": "STARLINK-33800",
    "OBJECT_ID": "25076H",
    "EPOCH": "2025-11-11T06:45:25.753248",
    "MEAN_MOTION": 15.27636022,
    "ECCENTRICITY": 0.0001379,
    "INCLINATION": 43.0019,
    "RA_OF_ASC_NODE": 270.2164,
    "ARG_OF_PERICENTER": 283.6151,
    "MEAN_ANOMALY": 76.4547,
    "EPHEMERIS_TYPE": 0,
    "CLASSIFICATION_TYPE": "U",
    "NORAD_CAT_ID": 63576,
    "ELEMENT_SET_NO": 999,
    "REV_AT_EPOCH": 3372,
    "BSTAR": 0.0009660900000000001,
    "MEAN_MOTION_DOT": 0.00026463,
    "MEAN_MOTION_DDOT": 0.0,
    "TLE_LINE1": "1 63576U 25076H   25315.28154807  .00026463  00000+0  96609-3 0  9991",
    "TLE_LINE2": "2 63576  43.0019 270.2164 0001379 283.6151  76.4547 15.27636022 33726",
    "COMMENT": "Grouped by shell and plane from TLE"
  },
  {
    "OBJECT_NAME": "STARLINK-33632",
    "OBJECT_ID": "25076J",
    "EPOCH": "2025-11-11T06:03:05.739264",
    "MEAN_MOTION": 15.27630092,
    "ECCENTRICITY": 0.0001517,
    "INCLINATION": 43.0023,
    "RA_OF_ASC_NODE": 270.851,
    "ARG_OF_PERICENTER": 258.9004,
    "MEAN_ANOMALY": 101.1677,
    "EPHEMERIS_TYPE": 0,
    "CLASSIFICATION_TYPE": "U",
    "NORAD_CAT_ID": 63577,
    "ELEMENT_SET_NO": 999,
    "REV_AT_EPOCH": 3371,
    "BSTAR": 0.0018056,
    "MEAN_MOTION_DOT": 0.00049837,
    "MEAN_MOTION_DDOT": 0.0,
    "TLE_LINE1": "1 63577U 25076J   25315.25214976  .00049837  00000+0  18056-2 0  9992",
    "TLE_LINE2": "2 63577  43.0023 270.8510 0001517 258.9004 101.1677 15.27630092 33719",
    "COMMENT": "Grouped by shell and plane from TLE"
  },
  {
    "OBJECT_NAME": "STARLINK-33719",
    "OBJECT_ID": "25076K",
    "EPOCH": "2025-11-11T05:24:14.416704",
    "MEAN_MOTION": 15.27633165,
    "ECCENTRICITY": 0.0001426,
    "INCLINATION": 43.0015,
    "RA_OF_ASC_NODE": 270.6528,
    "ARG_OF_PERICENTER": 268.2041,
    "MEAN_ANOMALY": 91.8647,
    "EPHEMERIS_TYPE": 0,
    "CLASSIFICATION_TYPE": "U",
    "NORAD_CAT_ID": 63578,
    "ELEMENT_SET_NO": 999,
    "REV_AT_EPOCH": 3371,
    "BSTAR": 0.0016998,
    "MEAN_MOTION_DOT": 0.00046888,
    "MEAN_MOTION_DDOT": 0.0,
    "TLE_LINE1": "1 63578U 25076K   25315.22516686  .00046888  00000+0  16998-2 0  9999",
    "TLE_LINE2": "2 63578  43.0015 270.6528 0001426 268.2041  91.8647 15.27633165 33718",
    "COMMENT": "Grouped by shell and plane from TLE"
  },
  {
    "OBJECT_NAME": "STARLINK-33755",
    "OBJECT_ID": "25076L",
    "EPOCH": "2025-11-11T07:00:13.384512",
    "MEAN_MOTION": 15.27638351,
    "ECCENTRICITY": 0.0001354,
    "INCLINATION": 43.0013,
    "RA_OF_ASC_NODE": 270.2087,
    "ARG_OF_PERICENTER": 266.0618,
    "MEAN_ANOMALY": 94.0079,
    "EPHEMERIS_TYPE": 0,
    "CLASSIFICATION_TYPE": "U",
    "NORAD_CAT_ID": 63579,
    "ELEMENT_SET_NO": 999,
    "REV_AT_EPOCH": 3372,
    "BSTAR": 0.0016399,
    "MEAN_MOTION_DOT": 0.00045222,
    "MEAN_MOTION_DDOT": 0.0,
    "TLE_LINE1": "1 63579U 25076L   25315.29182158  .00045222  00000+0  16399-2 0  9996",
    "TLE_LINE2": "2 63579  43.0013 270.2087 0001354 266.0618  94.0079 15.27638351 33726",
    "COMMENT": "Grouped by shell and plane from TLE"
  },
  {
    "OBJECT_NAME": "STARLINK-33752",
    "OBJECT_ID": "25076M",
    "EPOCH": "2025-11-11T05:44:35.570976",
    "MEAN_MOTION": 15.2763027,
    "ECCENTRICITY": 0.0001533,
    "INCLINATION": 43.0001,
    "RA_OF_ASC_NODE": 270.7538,
    "ARG_OF_PERICENTER": 269.6711,
    "MEAN_ANOMALY": 90.3965,
    "EPHEMERIS_TYPE": 0,
    "CLASSIFICATION_TYPE": "U",
    "NORAD_CAT_ID": 63580,
    "ELEMENT_SET_NO": 999,
    "REV_AT_EPOCH": 3371,
    "BSTAR": 0.001724,
    "MEAN_MOTION_DOT": 0.00047559,
    "MEAN_MOTION_DDOT": 0.0,
    "TLE_LINE1": "1 63580U 25076M   25315.23930059  .00047559  00000+0  17240-2 0  9994",
    "TLE_LINE2": "2 63580  43.0001 270.7538 0001533 269.6711  90.3965 15.27630270 33717",
    "COMMENT": "Grouped by shell and plane from TLE"
  },
  {
    "OBJECT_NAME": "STARLINK-33714",
    "OBJECT_ID": "25076N",
    "EPOCH": "2025-11-11T06:47:17.414016",
    "MEAN_MOTION": 15.27638532,
    "ECCENTRICITY": 0.0001562,
    "INCLINATION": 43.0016,
    "RA_OF_ASC_NODE": 270.2231,
    "ARG_OF_PERICENTER": 269.9347,
    "MEAN_ANOMALY": 90.1326,
    "EPHEMERIS_TYPE": 0,
    "CLASSIFICATION_TYPE": "U",
    "NORAD_CAT_ID": 63581,
    "ELEMENT_SET_NO": 999,
    "REV_AT_EPOCH": 3372,
    "BSTAR": 0.0015852,
    "MEAN_MOTION_DOT": 0.00043697,
    "MEAN_MOTION_DDOT": 0.0,
    "TLE_LINE1": "1 63581U 25076N   25315.28284044  .00043697  00000+0  15852-2 0  9992",
    "TLE_LINE2": "2 63581  43.0016 270.2231 0001562 269.9347  90.1326 15.27638532 33728",
    "COMMENT": "Grouped by shell and plane from TLE"
  },
  {
    "OBJECT_NAME": "STARLINK-33814",
    "OBJECT_ID": "25076P",
    "EPOCH": "2025-11-11T05:03:52.684416",
    "MEAN_MOTION": 15.27590849,
    "ECCENTRICITY": 0.0001346,
    "INCLINATION": 43.0052,
    "RA_OF_ASC_NODE": 270.5396,
    "ARG_OF_PERICENTER": 283.5277,
    "MEAN_ANOMALY": 76.5424,
    "EPHEMERIS_TYPE": 0,
    "CLASSIFICATION_TYPE": "U",
    "NORAD_CAT_ID": 63582,
    "ELEMENT_SET_NO": 999,
    "REV_AT_EPOCH": 3371,
    "BSTAR": 0.0016307,
    "MEAN_MOTION_DOT": 0.000449,
    "MEAN_MOTION_DDOT": 0.0,
    "TLE_LINE1": "1 63582U 25076P   25315.21102644  .00044900  00000+0  16307-2 0  9995",
    "TLE_LINE2": "2 63582  43.0052 270.5396 0001346 283.5277  76.5424 15.27590849 33712",
    "COMMENT": "Grouped by shell and plane from TLE"
  },
  {
    "OBJECT_NAME": "STARLINK-33817",
    "OBJECT_ID": "25076Q",
    "EPOCH": "2025-11-11T06:28:47.418528",
    "MEAN_MOTION": 15.27660879,
    "ECCENTRICITY": 0.0001306,
    "INCLINATION": 43.002,
    "RA_OF_ASC_NODE": 270.1254,
    "ARG_OF_PERICENTER": 265.0572,
    "MEAN_ANOMALY": 95.013,
    "EPHEMERIS_TYPE": 0,
    "CLASSIFICATION_TYPE": "U",
    "NORAD_CAT_ID": 63583,
    "ELEMENT_SET_NO": 999,
    "REV_AT_EPOCH": 3371,
    "BSTAR": 0.0021538,
    "MEAN_MOTION_DOT": 0.00059634,
    "MEAN_MOTION_DDOT": 0.0,
    "TLE_LINE1": "1 63583U 25076Q   25315.26999327  .00059634  00000+0  21538-2 0  9995",
    "TLE_LINE2": "2 63583  43.0020 270.1254 0001306 265.0572  95.0130 15.27660879 33717",
    "COMMENT": "Grouped by shell and plane from TLE"
  },
  {
    "OBJECT_NAME": "STARLINK-33820",
    "OBJECT_ID": "25076R",
    "EPOCH": "2025-11-11T06:17:40.995456",
    "MEAN_MOTION": 15.27620958,
    "ECCENTRICITY": 0.000216,
    "INCLINATION": 43.0016,
    "RA_OF_ASC_NODE": 270.0624,
    "ARG_OF_PERICENTER": 255.0746,
    "MEAN_ANOMALY": 104.9867,
    "EPHEMERIS_TYPE": 0,
    "CLASSIFICATION_TYPE": "U",
    "NORAD_CAT_ID": 63584,
    "ELEMENT_SET_NO": 999,
    "REV_AT_EPOCH": 3372,
    "BSTAR": 0.0020349,
    "MEAN_MOTION_DOT": 0.00056233,
    "MEAN_MOTION_DDOT": 0.0,
    "TLE_LINE1": "1 63584U 25076R   25315.26228004  .00056233  00000+0  20349-2 0  9994",
    "TLE_LINE2": "2 63584  43.0016 270.0624 0002160 255.0746 104.9867 15.27620958 33726",
    "COMMENT": "Grouped by shell and plane from TLE"
  },
  {
    "OBJECT_NAME": "STARLINK-33813",
    "OBJECT_ID": "25076S",
    "EPOCH": "2025-11-11T06:19:32.089440",
    "MEAN_MOTION": 15.27633473,
    "ECCENTRICITY": 0.0001519,
    "INCLINATION": 43.0032,
    "RA_OF_ASC_NODE": 270.0748,
    "ARG_OF_PERICENTER": 270.8357,
    "MEAN_ANOMALY": 89.2321,
    "EPHEMERIS_TYPE": 0,
    "CLASSIFICATION_TYPE": "U",
    "NORAD_CAT_ID": 63585,
    "ELEMENT_SET_NO": 999,
    "REV_AT_EPOCH": 3372,
    "BSTAR": 0.0018227,
    "MEAN_MOTION_DOT": 0.0005032,
    "MEAN_MOTION_DDOT": 0.0,
    "TLE_LINE1": "1 63585U 25076S   25315.26356585  .00050320  00000+0  18227-2 0  9994",
    "TLE_LINE2": "2 63585  43.0032 270.0748 0001519 270.8357  89.2321 15.27633473 33728",
    "COMMENT": "Grouped by shell and plane from TLE"
  },
  {
    "OBJECT_NAME": "STARLINK-33834",
    "OBJECT_ID": "25076T",
    "EPOCH": "2025-11-11T05:35:20.380992",
    "MEAN_MOTION": 15.27638785,
    "ECCENTRICITY": 0.0001461,
    "INCLINATION": 43.001,
    "RA_OF_ASC_NODE": 270.7028,
    "ARG_OF_PERICENTER": 261.6898,
    "MEAN_ANOMALY": 98.3788,
    "EPHEMERIS_TYPE": 0,
    "CLASSIFICATION_TYPE": "U",
    "NORAD_CAT_ID": 63586,
    "ELEMENT_SET_NO": 999,
    "REV_AT_EPOCH": 3371,
    "BSTAR": 0.0022894,
    "MEAN_MOTION_DOT": 0.00063394,
    "MEAN_MOTION_DDOT": 0.0,
    "TLE_LINE1": "1 63586U 25076T   25315.23287478  .00063394  00000+0  22894-2 0  9996",
    "TLE_LINE2": "2 63586  43.0010 270.7028 0001461 261.6898  98.3788 15.27638785 33715",
    "COMMENT": "Grouped by shell and plane from TLE"
  },
  {
    "OBJECT_NAME": "STARLINK-33830",
    "OBJECT_ID": "25076U",
    "EPOCH": "2025-11-11T07:05:47.641056",
    "MEAN_MOTION": 15.27629498,
    "ECCENTRICITY": 0.0001416,
    "INCLINATION": 43.0007,
    "RA_OF_ASC_NODE": 270.3132,
    "ARG_OF_PERICENTER": 224.9518,
    "MEAN_ANOMALY": 135.1219,
    "EPHEMERIS_TYPE": 0,
    "CLASSIFICATION_TYPE": "U",
    "NORAD_CAT_ID": 63587,
    "ELEMENT_SET_NO": 999,
    "REV_AT_EPOCH": 3372,
    "BSTAR": 0.0015489,
    "MEAN_MOTION_DOT": 0.00042672,
    "MEAN_MOTION_DDOT": 0.0,
    "TLE_LINE1": "1 63587U 25076U   25315.29569029  .00042672  00000+0  15489-2 0  9996",
    "TLE_LINE2": "2 63587  43.0007 270.3132 0001416 224.9518 135.1219 15.27629498 33726",
    "COMMENT": "Grouped by shell and plane from TLE"
  }
]